[Satellite]
VERSION=1.1
NAME=ABRIXAS
NICKNAME=ABRIXAS
TLE1=1 25721U 99022A   11059.19076060  .00001704  00000-0  88581-4 0   654
TLE2=2 25721  48.4395  53.7060 0019854 157.3716 202.8097 15.21390667654979
